QIANFAN-81              
1 63167U 25046J   25336.86079508  .00000134  00000+0  18848-3 0  9991
2 63167  88.9755 320.8950 0015616 143.2083 217.0143 13.50999002 46156
QIANFAN-82              
1 63168U 25046K   25336.82058745  .00000088  00000+0  11779-3 0  9992
2 63168  88.9755 320.9431 0013544 149.8452 210.3481 13.50972765 46138
QIANFAN-83              
1 63169U 25046L   25336.78083132  .00000064  00000+0  66856-4 0  9997
2 63169  88.9755 320.7431 0015243 137.2097 223.0250 13.61970781 46246
QIANFAN-84              
1 63170U 25046M   25336.84847286 -.00000012  00000+0 -37091-4 0  9998
2 63170  88.9752 321.0731 0016571 147.9804 212.2358 13.50984739 46066
QIANFAN-85              
1 63171U 25046N   25336.77108914  .00000142  00000+0  20043-3 0  9999
2 63171  88.9754 320.9526 0013927 149.0193 211.1782 13.50972962 46126
QIANFAN-86              
1 63172U 25046P   25336.85348196  .00000116  00000+0  16105-3 0  9992
2 63172  88.9756 320.8060 0011702 151.5524 208.6268 13.50973007 46217
QIANFAN-87              
1 63173U 25046Q   25336.82479823  .00000030  00000+0  27965-4 0  9994
2 63173  88.9752 320.9211 0012484 147.6561 212.5358 13.50971520 46142
QIANFAN-88              
1 63174U 25046R   25336.76710774  .00000114  00000+0  15723-3 0  9992
2 63174  88.9755 320.8813 0012639 155.5763 204.5989 13.50977570 46161
